33060,ORBCOMM FM38,2008,97.29,-1.0,-,48.44,Inactive,0,LEO,Russia,ORBCOMM,Unknown,Unknown,Unknown,1 33060U 08031A   25005.52318184  .00004821  00000+0  65707-3 0  9990,2 33060  48.4411   9.7717 0005365  50.8004 309.3387 14.80044812890634,14.80044812,0.0005365,LEO
33061,ORBCOMM FM41,2008,97.32,-1.0,-,48.44,Inactive,0,LEO,Russia,ORBCOMM,Unknown,Unknown,Unknown,1 33061U 08031B   25005.78530435  .00004915  00000+0  67505-3 0  9996,2 33061  48.4444  15.7730 0004694  35.6229 134.5240 14.79680342890613,14.79680342,0.0004694,LEO
33062,ORBCOMM FM29,2008,97.32,-1.0,-,48.44,Inactive,0,LEO,Russia,ORBCOMM,Unknown,Unknown,Unknown,1 33062U 08031C   25005.50548880  .00005257  00000+0  71941-3 0  9999,2 33062  48.4396  25.0735 0006408  35.0458 125.0446 14.79715453890044,14.79715453,0.0006408,LEO
33063,ORBCOMM FM39,2008,97.4,-1.0,-,48.44,Inactive,0,LEO,Russia,ORBCOMM,Unknown,Unknown,Unknown,1 33063U 08031D   25005.62486636  .00004147  00000+0  59098-3 0  9999,2 33063  48.4406  47.0810 0007503  10.3093 349.7974 14.78429650890156,14.7842965,0.0007503,LEO
25983,ORBCOMM FM33,1999,100.05,-1.0,-,45.03,Inactive,0,LEO,Eastern Range Airspace,ORBCOMM,Unknown,Unknown,Unknown,1 25983U 99065D   25005.50580057  .00003016  00000+0  10089-2 0  9997,2 25983  45.0286  51.9970 0010010 311.4551  48.5437 14.39202465312628,14.39202465,0.001001,LEO
25984,ORBCOMM FM36,1999,100.19,45.0,-,45.04,Inactive,1,LEO,Eastern Range Airspace,ORBCOMM,Commercial,Communications,Pegasus,1 25984U 99065E   25005.81215056  .00003077  00000+0  10684-2 0  9994,2 25984  45.0376 139.9690 0005010 207.3650 152.6935 14.37323249311645,14.37323249,0.000501,LEO
25986,ORBCOMM FM34,1999,100.24,-1.0,-,45.04,Inactive,0,LEO,Eastern Range Airspace,ORBCOMM,Unknown,Unknown,Unknown,1 25986U 99065G   25005.51260082  .00002827  00000+0  10024-2 0  9992,2 25986  45.0368 145.7202 0005021 235.9561 124.0811 14.36478131311503,14.36478131,0.0005021,LEO
25985,ORBCOMM FM35,1999,100.25,45.0,-,45.04,Inactive,1,LEO,Eastern Range Airspace,ORBCOMM,Commercial,Communications,Pegasus,1 25985U 99065F   25005.82036028  .00002625  00000+0  93516-3 0  9990,2 25985  45.0378 143.7418 0003661 277.9218  82.1215 14.36436602311625,14.36436602,0.0003661,LEO
